[{"OBJECT_NAME":"SAUDICOMSAT 5","OBJECT_ID":"2007-012H","EPOCH":"2026-03-09T22:03:24.279264","MEAN_MOTION":14.68003311,"ECCENTRICITY":0.00488208,"INCLINATION":98.3394,"RA_OF_ASC_NODE":41.8497,"ARG_OF_PERICENTER":78.2285,"MEAN_ANOMALY":282.439,"EPHEMERIS_TYPE":0,"CLASSIFICATION_TYPE":"U","NORAD_CAT_ID":31124,"ELEMENT_SET_NO":999,"REV_AT_EPOCH":903,"BSTAR":0.00021628636,"MEAN_MOTION_DOT":1.209e-5,"MEAN_MOTION_DDOT":0},{"OBJECT_NAME":"DOJO","OBJECT_ID":"2025-185F","EPOCH":"2026-03-09T17:11:19.626432","MEAN_MOTION":14.77363091,"ECCENTRICITY":0.00117501,"INCLINATION":97.9656,"RA_OF_ASC_NODE":153.1684,"ARG_OF_PERICENTER":55.9365,"MEAN_ANOMALY":304.2959,"EPHEMERIS_TYPE":0,"CLASSIFICATION_TYPE":"U","NORAD_CAT_ID":65302,"ELEMENT_SET_NO":999,"REV_AT_EPOCH":2914,"BSTAR":0.00075654511,"MEAN_MOTION_DOT":5.335e-5,"MEAN_MOTION_DDOT":0}]
